{
  "type": "FeatureCollection",
  "features": [
    {
      "type": "Feature",
      "properties": {
        "norad_id": 33901,
        "name": "COSMOS 2251 DEB",
        "group": "cosmos-2251-debris",
        "lat": 12.2074006061437,
        "lon": -130.43384827370832,
        "alt_km": 498.861772260635,
        "timestamp": "2025-12-10T21:43:22.483977+00:00",
        "meta_object_name": "COSMOS 2251 DEB",
        "meta_object_id": "1993-036DE",
        "meta_epoch": "2025-12-10T14:39:00.573120",
        "meta_mean_motion": 15.15534655,
        "meta_eccentricity": 0.0032489,
        "meta_inclination": 73.7734,
        "meta_ra_of_asc_node": 53.8016,
        "meta_arg_of_pericenter": 185.9102,
        "meta_mean_anomaly": 174.1714,
        "meta_ephemeris_type": 0,
        "meta_classification_type": "U",
        "meta_norad_cat_id": 33901,
        "meta_element_set_no": 999,
        "meta_rev_at_epoch": 89481,
        "meta_bstar": 0.0046375748,
        "meta_mean_motion_dot": 0.00090164,
        "meta_mean_motion_ddot": 0,
        "tle_line1": "1 33901U 93036DE  25344.61042330  .00090164  00000+0  46376-2 0  9991",
        "tle_line2": "2 33901  73.7734  53.8016 0032489 185.9102 174.1714 15.15534655894819"
      },
      "geometry": {
        "type": "Point",
        "coordinates": [
          -130.43384827370832,
          12.2074006061437
        ]
      }
    },
    {
      "type": "Feature",
      "properties": {
        "norad_id": 33905,
        "name": "COSMOS 2251 DEB",
        "group": "cosmos-2251-debris",
        "lat": 51.43804829900815,
        "lon": -18.700417924996806,
        "alt_km": 807.0265619858319,
        "timestamp": "2025-12-10T21:43:22.483987+00:00",
        "meta_object_name": "COSMOS 2251 DEB",
        "meta_object_id": "1993-036DJ",
        "meta_epoch": "2025-12-10T08:39:00.347616",
        "meta_mean_motion": 14.35372299,
        "meta_eccentricity": 0.00590215,
        "meta_inclination": 73.8876,
        "meta_ra_of_asc_node": 321.048,
        "meta_arg_of_pericenter": 211.0415,
        "meta_mean_anomaly": 270.248,
        "meta_ephemeris_type": 0,
        "meta_classification_type": "U",
        "meta_norad_cat_id": 33905,
        "meta_element_set_no": 999,
        "meta_rev_at_epoch": 87653,
        "meta_bstar": 0.001055691,
        "meta_mean_motion_dot": 3.063e-05,
        "meta_mean_motion_ddot": 0,
        "tle_line1": "1 33905U 93036DJ  25344.36042069  .00003063  00000+0  10557-2 0  9990",
        "tle_line2": "2 33905  73.8876 321.0480 0059021 211.0415 270.2480 14.35372299876537"
      },
      "geometry": {
        "type": "Point",
        "coordinates": [
          -18.700417924996806,
          51.43804829900815
        ]
      }
    },
    {
      "type": "Feature",
      "properties": {
        "norad_id": 33906,
        "name": "COSMOS 2251 DEB",
        "group": "cosmos-2251-debris",
        "lat": 22.225433579869886,
        "lon": 138.2406856036207,
        "alt_km": 726.7704295142112,
        "timestamp": "2025-12-10T21:43:22.483997+00:00",
        "meta_object_name": "COSMOS 2251 DEB",
        "meta_object_id": "1993-036DK",
        "meta_epoch": "2025-12-10T10:10:17.133024",
        "meta_mean_motion": 14.57021412,
        "meta_eccentricity": 0.00365902,
        "meta_inclination": 74.0309,
        "meta_ra_of_asc_node": 325.874,
        "meta_arg_of_pericenter": 355.6728,
        "meta_mean_anomaly": 157.3337,
        "meta_ephemeris_type": 0,
        "meta_classification_type": "U",
        "meta_norad_cat_id": 33906,
        "meta_element_set_no": 999,
        "meta_rev_at_epoch": 87974,
        "meta_bstar": 0.0032683678,
        "meta_mean_motion_dot": 0.0001484,
        "meta_mean_motion_ddot": 0,
        "tle_line1": "1 33906U 93036DK  25344.42380941  .00014840  00000+0  32684-2 0  9992",
        "tle_line2": "2 33906  74.0309 325.8740 0036590 355.6728 157.3337 14.57021412879745"
      },
      "geometry": {
        "type": "Point",
        "coordinates": [
          138.2406856036207,
          22.225433579869886
        ]
      }
    },
    {
      "type": "Feature",
      "properties": {
        "norad_id": 33907,
        "name": "COSMOS 2251 DEB",
        "group": "cosmos-2251-debris",
        "lat": -52.99507359571599,
        "lon": 14.716072846465606,
        "alt_km": 865.7026201889939,
        "timestamp": "2025-12-10T21:43:22.484007+00:00",
        "meta_object_name": "COSMOS 2251 DEB",
        "meta_object_id": "1993-036DL",
        "meta_epoch": "2025-12-10T10:17:45.557664",
        "meta_mean_motion": 14.30470945,
        "meta_eccentricity": 0.01124102,
        "meta_inclination": 74.0703,
        "meta_ra_of_asc_node": 37.8483,
        "meta_arg_of_pericenter": 94.0425,
        "meta_mean_anomaly": 279.6363,
        "meta_ephemeris_type": 0,
        "meta_classification_type": "U",
        "meta_norad_cat_id": 33907,
        "meta_element_set_no": 999,
        "meta_rev_at_epoch": 86547,
        "meta_bstar": 0.0023554643,
        "meta_mean_motion_dot": 6.551e-05,
        "meta_mean_motion_ddot": 0,
        "tle_line1": "1 33907U 93036DL  25344.42899951  .00006551  00000+0  23555-2 0  9996",
        "tle_line2": "2 33907  74.0703  37.8483 0112410  94.0425 279.6363 14.30470945865474"
      },
      "geometry": {
        "type": "Point",
        "coordinates": [
          14.716072846465606,
          -52.99507359571599
        ]
      }
    },
    {
      "type": "Feature",
      "properties": {
        "norad_id": 33908,
        "name": "COSMOS 2251 DEB",
        "group": "cosmos-2251-debris",
        "lat": 52.06964946120961,
        "lon": 7.1754276703784585,
        "alt_km": 910.4897765898586,
        "timestamp": "2025-12-10T21:43:22.484031+00:00",
        "meta_object_name": "COSMOS 2251 DEB",
        "meta_object_id": "1993-036DM",
        "meta_epoch": "2025-12-10T14:17:12.507360",
        "meta_mean_motion": 14.07313018,
        "meta_eccentricity": 0.02232911,
        "meta_inclination": 73.8376,
        "meta_ra_of_asc_node": 209.5709,
        "meta_arg_of_pericenter": 233.4918,
        "meta_mean_anomaly": 124.5471,
        "meta_ephemeris_type": 0,
        "meta_classification_type": "U",
        "meta_norad_cat_id": 33908,
        "meta_element_set_no": 999,
        "meta_rev_at_epoch": 85443,
        "meta_bstar": 0.0026774723,
        "meta_mean_motion_dot": 5.62e-05,
        "meta_mean_motion_ddot": 0,
        "tle_line1": "1 33908U 93036DM  25344.59528365  .00005620  00000+0  26775-2 0  9996",
        "tle_line2": "2 33908  73.8376 209.5709 0223291 233.4918 124.5471 14.07313018854436"
      },
      "geometry": {
        "type": "Point",
        "coordinates": [
          7.1754276703784585,
          52.06964946120961
        ]
      }
    },
    {
      "type": "Feature",
      "properties": {
        "norad_id": 33911,
        "name": "COSMOS 2251 DEB",
        "group": "cosmos-2251-debris",
        "lat": 8.433803994239279,
        "lon": -16.997465577501124,
        "alt_km": 642.9649149478182,
        "timestamp": "2025-12-10T21:43:22.484045+00:00",
        "meta_object_name": "COSMOS 2251 DEB",
        "meta_object_id": "1993-036DQ",
        "meta_epoch": "2025-12-09T22:50:33.719424",
        "meta_mean_motion": 14.74720559,
        "meta_eccentricity": 0.00143355,
        "meta_inclination": 74.0901,
        "meta_ra_of_asc_node": 167.2817,
        "meta_arg_of_pericenter": 109.4141,
        "meta_mean_anomaly": 42.319,
        "meta_ephemeris_type": 0,
        "meta_classification_type": "U",
        "meta_norad_cat_id": 33911,
        "meta_element_set_no": 999,
        "meta_rev_at_epoch": 88603,
        "meta_bstar": 0.002829254,
        "meta_mean_motion_dot": 0.00018965,
        "meta_mean_motion_ddot": 0,
        "tle_line1": "1 33911U 93036DQ  25343.95177916  .00018965  00000+0  28293-2 0  9994",
        "tle_line2": "2 33911  74.0901 167.2817 0014335 109.4141  42.3190 14.74720559886036"
      },
      "geometry": {
        "type": "Point",
        "coordinates": [
          -16.997465577501124,
          8.433803994239279
        ]
      }
    },
    {
      "type": "Feature",
      "properties": {
        "norad_id": 33912,
        "name": "COSMOS 2251 DEB",
        "group": "cosmos-2251-debris",
        "lat": -27.774827595255587,
        "lon": 21.853766161572157,
        "alt_km": 721.2903098303541,
        "timestamp": "2025-12-10T21:43:22.484056+00:00",
        "meta_object_name": "COSMOS 2251 DEB",
        "meta_object_id": "1993-036DR",
        "meta_epoch": "2025-12-10T14:17:11.078304",
        "meta_mean_motion": 14.51874782,
        "meta_eccentricity": 0.00114619,
        "meta_inclination": 74.0335,
        "meta_ra_of_asc_node": 193.7646,
        "meta_arg_of_pericenter": 272.7323,
        "meta_mean_anomaly": 117.4015,
        "meta_ephemeris_type": 0,
        "meta_classification_type": "U",
        "meta_norad_cat_id": 33912,
        "meta_element_set_no": 999,
        "meta_rev_at_epoch": 88402,
        "meta_bstar": 0.001011072,
        "meta_mean_motion_dot": 4.052e-05,
        "meta_mean_motion_ddot": 0,
        "tle_line1": "1 33912U 93036DR  25344.59526711  .00004052  00000+0  10111-2 0  9999",
        "tle_line2": "2 33912  74.0335 193.7646 0011461 272.7323 117.4015 14.51874782884025"
      },
      "geometry": {
        "type": "Point",
        "coordinates": [
          21.853766161572157,
          -27.774827595255587
        ]
      }
    }
  ]
}